CTC2_L_00513125-01
1 50534U 22727ZX  26070.40849537  .00000000  00000+0  00000-0 0  9991
2 50534  97.2000 297.6000 0000000   0.0000 235.2000 15.38683946    17
CTC2_L_00513125-02
1 50535U 25839HZ  26070.40849537  .00000000  00000+0  00000-0 0  9999
2 50535  97.2000 297.6000 0000000   0.0000  55.2000 15.38683946    18
CTC2_L_00513126-01
1 50536U 23849TW  26070.40849537  .00000000  00000+0  00000-0 0  9999
2 50536  97.2000 300.0000 0000000   0.0000 240.0000 15.38683946    12
CTC2_L_00513126-02
1 50537U 24802JW  26070.40849537  .00000000  00000+0  00000-0 0  9990
2 50537  97.2000 300.0000 0000000   0.0000  60.0000 15.38683946    13
CTC2_L_00513127-01
1 50538U 24486TC  26070.40849537  .00000000  00000+0  00000-0 0  9999
2 50538  97.2000 302.4000 0000000   0.0000 244.8000 15.38683946    12
CTC2_L_00513127-02
1 50539U 26032HU  26070.40849537  .00000000  00000+0  00000-0 0  9999
2 50539  97.2000 302.4000 0000000   0.0000  64.8000 15.38683946    13
CTC2_L_00513128-01
1 50540U 23580KS  26070.40849537  .00000000  00000+0  00000-0 0  9996
2 50540  97.2000 304.8000 0000000   0.0000 249.6000 15.38683946    14
CTC2_L_00513128-02
1 50541U 26815KM  26070.40849537  .00000000  00000+0  00000-0 0  9991
2 50541  97.2000 304.8000 0000000   0.0000  69.6000 15.38683946    15
CTC2_L_00513129-01
1 50542U 24819R   26070.40849537  .00000000  00000+0  00000-0 0  9994
2 50542  97.2000 307.2000 0000000   0.0000 254.4000 15.38683946    17
CTC2_L_00513129-02
1 50543U 26521TQ  26070.40849537  .00000000  00000+0  00000-0 0  9997
2 50543  97.2000 307.2000 0000000   0.0000  74.4000 15.38683946    18
CTC2_L_00513130-01
1 50544U 23152TX  26070.40849537  .00000000  00000+0  00000-0 0  9995
2 50544  97.2000 309.6000 0000000   0.0000 259.2000 15.38683946    18
CTC2_L_00513130-02
1 50545U 24546ZI  26070.40849537  .00000000  00000+0  00000-0 0  9994
2 50545  97.2000 309.6000 0000000   0.0000  79.2000 15.38683946    19
CTC2_L_00513131-01
1 50546U 25289UR  26070.40849537  .00000000  00000+0  00000-0 0  9990
2 50546  97.2000 312.0000 0000000   0.0000 264.0000 15.38683946    12
CTC2_L_00513131-02
1 50547U 22887I   26070.40849537  .00000000  00000+0  00000-0 0  9992
2 50547  97.2000 312.0000 0000000   0.0000  84.0000 15.38683946    13
CTC2_L_00513132-01
1 50548U 22684YL  26070.40849537  .00000000  00000+0  00000-0 0  9998
2 50548  97.2000 314.4000 0000000   0.0000 268.8000 15.38683946    12
CTC2_L_00513132-02
1 50549U 24651IH  26070.40849537  .00000000  00000+0  00000-0 0  9995
2 50549  97.2000 314.4000 0000000   0.0000  88.8000 15.38683946    13
CTC2_L_00513133-01
1 50550U 26065LO  26070.40849537  .00000000  00000+0  00000-0 0  9998
2 50550  97.2000 316.8000 0000000   0.0000 273.6000 15.38683946    15
CTC2_L_00513133-02
1 50551U 24561RT  26070.40849537  .00000000  00000+0  00000-0 0  9998
2 50551  97.2000 316.8000 0000000   0.0000  93.6000 15.38683946    16
CTC2_L_00513134-01
1 50552U 23086QF  26070.40849537  .00000000  00000+0  00000-0 0  9990
2 50552  97.2000 319.2000 0000000   0.0000 278.4000 15.38683946    17
CTC2_L_00513134-02
1 50553U 24602IK  26070.40849537  .00000000  00000+0  00000-0 0  9996
2 50553  97.2000 319.2000 0000000   0.0000  98.4000 15.38683946    18
CTC2_L_00513135-01
1 50554U 25025OA  26070.40849537  .00000000  00000+0  00000-0 0  9997
2 50554  97.2000 321.6000 0000000   0.0000 283.2000 15.38683946    10
CTC2_L_00513135-02
1 50555U 25193IB  26070.40849537  .00000000  00000+0  00000-0 0  9994
2 50555  97.2000 321.6000 0000000   0.0000 103.2000 15.38683946    12
CTC2_L_00513136-01
1 50556U 26060WI  26070.40849537  .00000000  00000+0  00000-0 0  9999
2 50556  97.2000 324.0000 0000000   0.0000 288.0000 15.38683946    12
CTC2_L_00513136-02
1 50557U 26759JL  26070.40849537  .00000000  00000+0  00000-0 0  9995
2 50557  97.2000 324.0000 0000000   0.0000 108.0000 15.38683946    14
CTC2_L_00513137-01
1 50558U 25677US  26070.40849537  .00000000  00000+0  00000-0 0  9994
2 50558  97.2000 326.4000 0000000   0.0000 292.8000 15.38683946    13
CTC2_L_00513137-02
1 50559U 23446SB  26070.40849537  .00000000  00000+0  00000-0 0  9997
2 50559  97.2000 326.4000 0000000   0.0000 112.8000 15.38683946    15
CTC2_L_00513138-01
1 50560U 24955EI  26070.40849537  .00000000  00000+0  00000-0 0  9995
2 50560  97.2000 328.8000 0000000   0.0000 297.6000 15.38683946    15
CTC2_L_00513138-02
1 50561U 24589NY  26070.40849537  .00000000  00000+0  00000-0 0  9999
2 50561  97.2000 328.8000 0000000   0.0000 117.6000 15.38683946    17
CTC2_L_00513139-01
1 50562U 23184FW  26070.40849537  .00000000  00000+0  00000-0 0  9990
2 50562  97.2000 331.2000 0000000   0.0000 302.4000 15.38683946    10
CTC2_L_00513139-02
1 50563U 26019RF  26070.40849537  .00000000  00000+0  00000-0 0  9991
2 50563  97.2000 331.2000 0000000   0.0000 122.4000 15.38683946    11
CTC2_L_00513140-01
1 50564U 24893CQ  26070.40849537  .00000000  00000+0  00000-0 0  9990
2 50564  97.2000 333.6000 0000000   0.0000 307.2000 15.38683946    11
CTC2_L_00513140-02
1 50565U 23077ZC  26070.40849537  .00000000  00000+0  00000-0 0  9994
2 50565  97.2000 333.6000 0000000   0.0000 127.2000 15.38683946    12
CTC2_L_00513141-01
1 50566U 23294LM  26070.40849537  .00000000  00000+0  00000-0 0  9996
2 50566  97.2000 336.0000 0000000   0.0000 312.0000 15.38683946    14
CTC2_L_00513141-02
1 50567U 26664CL  26070.40849537  .00000000  00000+0  00000-0 0  9991
2 50567  97.2000 336.0000 0000000   0.0000 132.0000 15.38683946    15
CTC2_L_00513142-01
1 50568U 24352MC  26070.40849537  .00000000  00000+0  00000-0 0  9994
2 50568  97.2000 338.4000 0000000   0.0000 316.8000 15.38683946    14
CTC2_L_00513142-02
1 50569U 23342CF  26070.40849537  .00000000  00000+0  00000-0 0  9993
2 50569  97.2000 338.4000 0000000   0.0000 136.8000 15.38683946    15
CTC2_L_00513143-01
1 50570U 23177DN  26070.40849537  .00000000  00000+0  00000-0 0  9991
2 50570  97.2000 340.8000 0000000   0.0000 321.6000 15.38683946    18
CTC2_L_00513143-02
1 50571U 26479GU  26070.40849537  .00000000  00000+0  00000-0 0  9990
2 50571  97.2000 340.8000 0000000   0.0000 141.6000 15.38683946    19
CTC2_L_00513144-01
1 50572U 26314ZZ  26070.40849537  .00000000  00000+0  00000-0 0  9999
2 50572  97.2000 343.2000 0000000   0.0000 326.4000 15.38683946    10
CTC2_L_00513144-02
1 50573U 22818ZW  26070.40849537  .00000000  00000+0  00000-0 0  9995
2 50573  97.2000 343.2000 0000000   0.0000 146.4000 15.38683946    11
CTC2_L_00513145-01
1 50574U 23690ZA  26070.40849537  .00000000  00000+0  00000-0 0  9995
2 50574  97.2000 345.6000 0000000   0.0000 331.2000 15.38683946    12
CTC2_L_00513145-02
1 50575U 24964HI  26070.40849537  .00000000  00000+0  00000-0 0  9991
2 50575  97.2000 345.6000 0000000   0.0000 151.2000 15.38683946    13
CTC2_L_00513146-01
1 50576U 24451HW  26070.40849537  .00000000  00000+0  00000-0 0  9993
2 50576  97.2000 348.0000 0000000   0.0000 336.0000 15.38683946    14
CTC2_L_00513146-02
1 50577U 23142YC  26070.40849537  .00000000  00000+0  00000-0 0  9990
2 50577  97.2000 348.0000 0000000   0.0000 156.0000 15.38683946    15
CTC2_L_00513147-01
1 50578U 23948VP  26070.40849537  .00000000  00000+0  00000-0 0  9995
2 50578  97.2000 350.4000 0000000   0.0000 340.8000 15.38683946    16
CTC2_L_00513147-02
1 50579U 25631RD  26070.40849537  .00000000  00000+0  00000-0 0  9997
2 50579  97.2000 350.4000 0000000   0.0000 160.8000 15.38683946    17
CTC2_L_00513148-01
1 50580U 26886KR  26070.40849537  .00000000  00000+0  00000-0 0  9992
2 50580  97.2000 352.8000 0000000   0.0000 345.6000 15.38683946    18
CTC2_L_00513148-02
1 50581U 26788AW  26070.40849537  .00000000  00000+0  00000-0 0  9994
2 50581  97.2000 352.8000 0000000   0.0000 165.6000 15.38683946    19
CTC2_L_00513149-01
1 50582U 24887CP  26070.40849537  .00000000  00000+0  00000-0 0  9993
2 50582  97.2000 355.2000 0000000   0.0000 350.4000 15.38683946    11
CTC2_L_00513149-02
1 50583U 25619PL  26070.40849537  .00000000  00000+0  00000-0 0  9998
2 50583  97.2000 355.2000 0000000   0.0000 170.4000 15.38683946    12
CTC2_L_00513150-01
1 50584U 24419OB  26070.40849537  .00000000  00000+0  00000-0 0  9996
2 50584  97.2000 357.6000 0000000   0.0000 355.2000 15.38683946    12
CTC2_L_00513150-02
1 50585U 22454AT  26070.40849537  .00000000  00000+0  00000-0 0  9994
2 50585  97.2000 357.6000 0000000   0.0000 175.2000 15.38683946    13
